0 SCOUT B DEB
1 29278U 68066M   13275.23233024  .00002520  00000-0  16904-2 0  1703
2 29278 080.6276 239.5362 0790504 332.6197 026.4744 13.04334463429952
0 SCOUT B DEB
1 29278U 68066M   13282.21139505  .00004536  00000-0  30637-2 0  1717
2 29278 080.6243 233.3879 0788422 316.3976 039.5317 13.04455613430865
